{
  "type": "FeatureCollection",
  "features": [
    {
      "type": "Feature",
      "properties": {
        "norad_id": 15362,
        "name": "NOVA 3",
        "group": "nnss",
        "lat": -22.242107146528213,
        "lon": -99.48087975431157,
        "alt_km": 1190.3802219846111,
        "timestamp": "2025-12-15T15:53:20.121254+00:00",
        "meta_object_name": "NOVA 3",
        "meta_object_id": "1984-110A",
        "meta_epoch": "2025-12-14T19:29:24.986400",
        "meta_mean_motion": 13.23044807,
        "meta_eccentricity": 0.0030352,
        "meta_inclination": 90.1224,
        "meta_ra_of_asc_node": 80.5592,
        "meta_arg_of_pericenter": 326.0104,
        "meta_mean_anomaly": 150.5145,
        "meta_ephemeris_type": 0,
        "meta_classification_type": "U",
        "meta_norad_cat_id": 15362,
        "meta_element_set_no": 999,
        "meta_rev_at_epoch": 98726,
        "meta_bstar": 8.1888046e-05,
        "meta_mean_motion_dot": 4.3e-07,
        "meta_mean_motion_ddot": 0,
        "tle_line1": "1 15362U 84110A   25348.81209475  .00000043  00000+0  81888-4 0  9992",
        "tle_line2": "2 15362  90.1224  80.5592 0030352 326.0104 150.5145 13.23044807987260"
      },
      "geometry": {
        "type": "Point",
        "coordinates": [
          -99.48087975431157,
          -22.242107146528213
        ]
      }
    },
    {
      "type": "Feature",
      "properties": {
        "norad_id": 15935,
        "name": "OSCAR 30",
        "group": "nnss",
        "lat": 59.544311822581335,
        "lon": 99.61344337483044,
        "alt_km": 995.9742000558526,
        "timestamp": "2025-12-15T15:53:20.121263+00:00",
        "meta_object_name": "OSCAR 30",
        "meta_object_id": "1985-066A",
        "meta_epoch": "2025-12-14T20:22:32.017152",
        "meta_mean_motion": 13.36078582,
        "meta_eccentricity": 0.01693766,
        "meta_inclination": 90.1653,
        "meta_ra_of_asc_node": 99.8815,
        "meta_arg_of_pericenter": 78.0202,
        "meta_mean_anomaly": 33.6979,
        "meta_ephemeris_type": 0,
        "meta_classification_type": "U",
        "meta_norad_cat_id": 15935,
        "meta_element_set_no": 999,
        "meta_rev_at_epoch": 96481,
        "meta_bstar": 0.00012434698,
        "meta_mean_motion_dot": 7.9e-07,
        "meta_mean_motion_ddot": 0,
        "tle_line1": "1 15935U 85066A   25348.84898168  .00000079  00000+0  12435-3 0  9995",
        "tle_line2": "2 15935  90.1653  99.8815 0169376  78.0202  33.6979 13.36078582964818"
      },
      "geometry": {
        "type": "Point",
        "coordinates": [
          99.61344337483044,
          59.544311822581335
        ]
      }
    },
    {
      "type": "Feature",
      "properties": {
        "norad_id": 15936,
        "name": "OSCAR 24",
        "group": "nnss",
        "lat": 44.39224444329343,
        "lon": -87.46755398311765,
        "alt_km": 1043.009840259163,
        "timestamp": "2025-12-15T15:53:20.121272+00:00",
        "meta_object_name": "OSCAR 24",
        "meta_object_id": "1985-066B",
        "meta_epoch": "2025-12-14T20:00:30.218976",
        "meta_mean_motion": 13.35936139,
        "meta_eccentricity": 0.01704669,
        "meta_inclination": 90.1791,
        "meta_ra_of_asc_node": 92.3424,
        "meta_arg_of_pericenter": 84.4967,
        "meta_mean_anomaly": 27.9488,
        "meta_ephemeris_type": 0,
        "meta_classification_type": "U",
        "meta_norad_cat_id": 15936,
        "meta_element_set_no": 999,
        "meta_rev_at_epoch": 96671,
        "meta_bstar": 0.00013138932,
        "meta_mean_motion_dot": 8.3e-07,
        "meta_mean_motion_ddot": 0,
        "tle_line1": "1 15936U 85066B   25348.83368309  .00000083  00000+0  13139-3 0  9991",
        "tle_line2": "2 15936  90.1791  92.3424 0170466  84.4967  27.9488 13.35936139966719"
      },
      "geometry": {
        "type": "Point",
        "coordinates": [
          -87.46755398311765,
          44.39224444329343
        ]
      }
    },
    {
      "type": "Feature",
      "properties": {
        "norad_id": 17070,
        "name": "POLAR BEAR",
        "group": "nnss",
        "lat": 22.46743547832997,
        "lon": -176.18493755182698,
        "alt_km": 979.3675811413814,
        "timestamp": "2025-12-15T15:53:20.121282+00:00",
        "meta_object_name": "POLAR BEAR",
        "meta_object_id": "1986-088A",
        "meta_epoch": "2025-12-14T22:53:11.287104",
        "meta_mean_motion": 13.75251121,
        "meta_eccentricity": 0.00410933,
        "meta_inclination": 89.6172,
        "meta_ra_of_asc_node": 183.6852,
        "meta_arg_of_pericenter": 112.8484,
        "meta_mean_anomaly": 4.9347,
        "meta_ephemeris_type": 0,
        "meta_classification_type": "U",
        "meta_norad_cat_id": 17070,
        "meta_element_set_no": 999,
        "meta_rev_at_epoch": 96009,
        "meta_bstar": 0.00011600389,
        "meta_mean_motion_dot": 1.23e-06,
        "meta_mean_motion_ddot": 0,
        "tle_line1": "1 17070U 86088A   25348.95360286  .00000123  00000+0  11600-3 0  9992",
        "tle_line2": "2 17070  89.6172 183.6852 0041093 112.8484   4.9347 13.75251121960097"
      },
      "geometry": {
        "type": "Point",
        "coordinates": [
          -176.18493755182698,
          22.46743547832997
        ]
      }
    },
    {
      "type": "Feature",
      "properties": {
        "norad_id": 18361,
        "name": "OSCAR 27",
        "group": "nnss",
        "lat": -37.261385440485775,
        "lon": 79.66661918448071,
        "alt_km": 1119.8266218964181,
        "timestamp": "2025-12-15T15:53:20.121292+00:00",
        "meta_object_name": "OSCAR 27",
        "meta_object_id": "1987-080A",
        "meta_epoch": "2025-12-14T18:38:56.471136",
        "meta_mean_motion": 13.44907109,
        "meta_eccentricity": 0.01030621,
        "meta_inclination": 90.3743,
        "meta_ra_of_asc_node": 79.3486,
        "meta_arg_of_pericenter": 217.911,
        "meta_mean_anomaly": 141.4751,
        "meta_ephemeris_type": 0,
        "meta_classification_type": "U",
        "meta_norad_cat_id": 18361,
        "meta_element_set_no": 999,
        "meta_rev_at_epoch": 87584,
        "meta_bstar": 0.00016951138,
        "meta_mean_motion_dot": 1.1e-06,
        "meta_mean_motion_ddot": 0,
        "tle_line1": "1 18361U 87080A   25348.77704249  .00000110  00000+0  16951-3 0  9990",
        "tle_line2": "2 18361  90.3743  79.3486 0103062 217.9110 141.4751 13.44907109875840"
      },
      "geometry": {
        "type": "Point",
        "coordinates": [
          79.66661918448071,
          -37.261385440485775
        ]
      }
    },
    {
      "type": "Feature",
      "properties": {
        "norad_id": 18362,
        "name": "OSCAR 29",
        "group": "nnss",
        "lat": -29.827496544107806,
        "lon": 80.05608375370463,
        "alt_km": 1099.996128517615,
        "timestamp": "2025-12-15T15:53:20.121301+00:00",
        "meta_object_name": "OSCAR 29",
        "meta_object_id": "1987-080B",
        "meta_epoch": "2025-12-14T19:13:05.047968",
        "meta_mean_motion": 13.44448768,
        "meta_eccentricity": 0.01040327,
        "meta_inclination": 90.3753,
        "meta_ra_of_asc_node": 79.8085,
        "meta_arg_of_pericenter": 241.1833,
        "meta_mean_anomaly": 241.731,
        "meta_ephemeris_type": 0,
        "meta_classification_type": "U",
        "meta_norad_cat_id": 18362,
        "meta_element_set_no": 999,
        "meta_rev_at_epoch": 87537,
        "meta_bstar": 0.00015108872,
        "meta_mean_motion_dot": 9.8e-07,
        "meta_mean_motion_ddot": 0,
        "tle_line1": "1 18362U 87080B   25348.80075287  .00000098  00000+0  15109-3 0  9997",
        "tle_line2": "2 18362  90.3753  79.8085 0104032 241.1833 241.7310 13.44448768875375"
      },
      "geometry": {
        "type": "Point",
        "coordinates": [
          80.05608375370463,
          -29.827496544107806
        ]
      }
    },
    {
      "type": "Feature",
      "properties": {
        "norad_id": 19070,
        "name": "OSCAR 23",
        "group": "nnss",
        "lat": -68.73717507358371,
        "lon": 17.309446318544524,
        "alt_km": 1230.8034971495554,
        "timestamp": "2025-12-15T15:53:20.121310+00:00",
        "meta_object_name": "OSCAR 23",
        "meta_object_id": "1988-033A",
        "meta_epoch": "2025-12-14T15:32:59.356608",
        "meta_mean_motion": 13.27787309,
        "meta_eccentricity": 0.01896852,
        "meta_inclination": 90.3212,
        "meta_ra_of_asc_node": 16.4519,
        "meta_arg_of_pericenter": 174.6182,
        "meta_mean_anomaly": 310.0311,
        "meta_ephemeris_type": 0,
        "meta_classification_type": "U",
        "meta_norad_cat_id": 19070,
        "meta_element_set_no": 999,
        "meta_rev_at_epoch": 82278,
        "meta_bstar": 0.00017534093,
        "meta_mean_motion_dot": 9.6e-07,
        "meta_mean_motion_ddot": 0,
        "tle_line1": "1 19070U 88033A   25348.64790922  .00000096  00000+0  17534-3 0  9997",
        "tle_line2": "2 19070  90.3212  16.4519 0189685 174.6182 310.0311 13.27787309822781"
      },
      "geometry": {
        "type": "Point",
        "coordinates": [
          17.309446318544524,
          -68.73717507358371
        ]
      }
    }
  ]
}